[    
    {
        "state": "California",
        "cityname": "San Francisco",
        "zipcode": 94109
    },
    {
        "state": "New York",
        "cityname": "New York City",
        "zipcode": 10178
    },
    {
        "state": "California",
        "cityname": "Los Angeles",
        "zipcode": 90210
    },
    {
        "state": "Illinois",
        "cityname": "Chicago",
        "zipcode": 60106
    },
    {
        "state": "Texas",
        "cityname": "Houston",
        "zipcode": 77006
    },
    {
        "state": "Arizona",
        "cityname": "Phoenix",
        "zipcode": 85011
    },
    {
        "state": "Nevada",
        "cityname": "Las Vegas",
        "zipcode": 89109
    },
    {
        "state": "California",
        "cityname": "San Jose",
        "zipcode": 95035
    },
    {
        "state": "Washington",
        "cityname": "Seattle",
        "zipcode": 98107
    },
    {
        "state": "Hawaii",
        "cityname": "Honolulu",
        "zipcode": 96810
    },
    {
        "state": "Oregon",
        "cityname": "Portland",
        "zipcode": 97209
    },
    {
        "state": "Michigan",
        "cityname": "Detroit",
        "zipcode": 48206
    },
    {
        "state": "Texas",
        "cityname": "Austin",
        "zipcode": 78660
    },
    {
        "state": "Georgia",
        "cityname": "Savannah",
        "zipcode": 31408
    },
    {
        "state": "Florida",
        "cityname": "Miami",
        "zipcode": 33127
    },
    {
        "state": "Louisiana",
        "cityname": "New Orleans",
        "zipcode": 70130
    },
    {
        "state": "South Carolina",
        "cityname": "Charleston",
        "zipcode": 29409
    },
    {
        "state": "Missouri",
        "cityname": "Branson",
        "zipcode": 65615
    },
    {
        "state": "California",
        "cityname": "San Diego",
        "zipcode": 92014
    },
    {
        "state": "Missouri",
        "cityname": "St. Louis",
        "zipcode": 63155
    }
]